[{"OBJECT_NAME":"STARLINK-34727","OBJECT_ID":"2025-161L","EPOCH":"2026-03-09T21:16:53.775264","MEAN_MOTION":15.30191467,"ECCENTRICITY":0.00011386,"INCLINATION":53.1584,"RA_OF_ASC_NODE":293.0315,"ARG_OF_PERICENTER":82.1949,"MEAN_ANOMALY":277.9181,"EPHEMERIS_TYPE":0,"CLASSIFICATION_TYPE":"U","NORAD_CAT_ID":65025,"ELEMENT_SET_NO":999,"REV_AT_EPOCH":3538,"BSTAR":0.00045058397,"MEAN_MOTION_DOT":0.00013006,"MEAN_MOTION_DDOT":0},{"OBJECT_NAME":"TRANSPORTER-1 OBJECT L","OBJECT_ID":"2021-006L","EPOCH":"2026-03-09T22:38:42.795168","MEAN_MOTION":15.33192932,"ECCENTRICITY":0.00114726,"INCLINATION":97.2368,"RA_OF_ASC_NODE":117.6447,"ARG_OF_PERICENTER":180.5165,"MEAN_ANOMALY":179.6068,"EPHEMERIS_TYPE":0,"CLASSIFICATION_TYPE":"U","NORAD_CAT_ID":47423,"ELEMENT_SET_NO":999,"REV_AT_EPOCH":28445,"BSTAR":0.00025636794,"MEAN_MOTION_DOT":8.162e-5,"MEAN_MOTION_DDOT":0}]
